{
  "type": "FeatureCollection",
  "features": [
    {
      "type": "Feature",
      "properties": {
        "norad_id": 40545,
        "name": "GSAT0204 (GALILEO 8)",
        "group": "gnss",
        "lat": 50.814998430586535,
        "lon": 113.216182239151,
        "alt_km": 23232.418911670342,
        "timestamp": "2025-12-18T23:35:49.300899+00:00",
        "meta_object_name": "GSAT0204 (GALILEO 8)",
        "meta_object_id": "2015-017B",
        "meta_epoch": "2025-12-18T05:07:45.807168",
        "meta_mean_motion": 1.70475664,
        "meta_eccentricity": 0.00061628,
        "meta_inclination": 56.8529,
        "meta_ra_of_asc_node": 346.5485,
        "meta_arg_of_pericenter": 265.6138,
        "meta_mean_anomaly": 94.3298,
        "meta_ephemeris_type": 0,
        "meta_classification_type": "U",
        "meta_norad_cat_id": 40545,
        "meta_element_set_no": 999,
        "meta_rev_at_epoch": 2916,
        "meta_bstar": 0,
        "meta_mean_motion_dot": -7.7e-07,
        "meta_mean_motion_ddot": 0,
        "tle_line1": "1 40545U 15017B   25352.21372462 -.00000077  00000+0  00000+0 0  9999",
        "tle_line2": "2 40545  56.8529 346.5485 0006162 265.6138  94.3298  1.70475664 29169"
      },
      "geometry": {
        "type": "Point",
        "coordinates": [
          113.216182239151,
          50.814998430586535
        ]
      }
    },
    {
      "type": "Feature",
      "properties": {
        "norad_id": 40549,
        "name": "BEIDOU-3S IGSO-1S (C31)",
        "group": "gnss",
        "lat": -40.682918834218455,
        "lon": 164.6824547691298,
        "alt_km": 35677.20571430392,
        "timestamp": "2025-12-18T23:35:49.300910+00:00",
        "meta_object_name": "BEIDOU-3S IGSO-1S (C31)",
        "meta_object_id": "2015-019A",
        "meta_epoch": "2025-12-18T15:55:54.873984",
        "meta_mean_motion": 1.00291608,
        "meta_eccentricity": 0.00363131,
        "meta_inclination": 49.5406,
        "meta_ra_of_asc_node": 297.6414,
        "meta_arg_of_pericenter": 194.2599,
        "meta_mean_anomaly": 288.9946,
        "meta_ephemeris_type": 0,
        "meta_classification_type": "U",
        "meta_norad_cat_id": 40549,
        "meta_element_set_no": 999,
        "meta_rev_at_epoch": 3926,
        "meta_bstar": 0,
        "meta_mean_motion_dot": -1.83e-06,
        "meta_mean_motion_ddot": 0,
        "tle_line1": "1 40549U 15019A   25352.66382956 -.00000183  00000+0  00000+0 0  9991",
        "tle_line2": "2 40549  49.5406 297.6414 0036313 194.2599 288.9946  1.00291608 39263"
      },
      "geometry": {
        "type": "Point",
        "coordinates": [
          164.6824547691298,
          -40.682918834218455
        ]
      }
    },
    {
      "type": "Feature",
      "properties": {
        "norad_id": 40730,
        "name": "GPS BIIF-10 (PRN 08)",
        "group": "gnss",
        "lat": -1.2354139149788568,
        "lon": 95.39599721170498,
        "alt_km": 20448.89326729506,
        "timestamp": "2025-12-18T23:35:49.300921+00:00",
        "meta_object_name": "GPS BIIF-10 (PRN 08)",
        "meta_object_id": "2015-033A",
        "meta_epoch": "2025-12-18T05:38:11.905728",
        "meta_mean_motion": 2.0056541,
        "meta_eccentricity": 0.0111299,
        "meta_inclination": 54.1258,
        "meta_ra_of_asc_node": 274.5468,
        "meta_arg_of_pericenter": 26.9435,
        "meta_mean_anomaly": 333.656,
        "meta_ephemeris_type": 0,
        "meta_classification_type": "U",
        "meta_norad_cat_id": 40730,
        "meta_element_set_no": 999,
        "meta_rev_at_epoch": 7636,
        "meta_bstar": 0,
        "meta_mean_motion_dot": -3.6e-07,
        "meta_mean_motion_ddot": 0,
        "tle_line1": "1 40730U 15033A   25352.23486002 -.00000036  00000+0  00000+0 0  9996",
        "tle_line2": "2 40730  54.1258 274.5468 0111299  26.9435 333.6560  2.00565410 76360"
      },
      "geometry": {
        "type": "Point",
        "coordinates": [
          95.39599721170498,
          -1.2354139149788568
        ]
      }
    },
    {
      "type": "Feature",
      "properties": {
        "norad_id": 40748,
        "name": "BEIDOU-3S M2S (C58)",
        "group": "gnss",
        "lat": 39.20912354856901,
        "lon": -16.99477161484022,
        "alt_km": 21550.776344618083,
        "timestamp": "2025-12-18T23:35:49.300933+00:00",
        "meta_object_name": "BEIDOU-3S M2S (C58)",
        "meta_object_id": "2015-037A",
        "meta_epoch": "2025-12-11T22:15:26.437248",
        "meta_mean_motion": 1.8622897,
        "meta_eccentricity": 0.00123447,
        "meta_inclination": 55.0397,
        "meta_ra_of_asc_node": 308.4912,
        "meta_arg_of_pericenter": 267.8245,
        "meta_mean_anomaly": 92.025,
        "meta_ephemeris_type": 0,
        "meta_classification_type": "U",
        "meta_norad_cat_id": 40748,
        "meta_element_set_no": 999,
        "meta_rev_at_epoch": 7063,
        "meta_bstar": 0,
        "meta_mean_motion_dot": -8.9e-07,
        "meta_mean_motion_ddot": 0,
        "tle_line1": "1 40748U 15037A   25345.92738932 -.00000089  00000+0  00000+0 0  9997",
        "tle_line2": "2 40748  55.0397 308.4912 0012344 267.8245  92.0250  1.86228970 70636"
      },
      "geometry": {
        "type": "Point",
        "coordinates": [
          -16.99477161484022,
          39.20912354856901
        ]
      }
    },
    {
      "type": "Feature",
      "properties": {
        "norad_id": 40749,
        "name": "BEIDOU-3S M1S (C57)",
        "group": "gnss",
        "lat": -52.90920202877873,
        "lon": -164.12791862804679,
        "alt_km": 21533.813193325692,
        "timestamp": "2025-12-18T23:35:49.300944+00:00",
        "meta_object_name": "BEIDOU-3S M1S (C57)",
        "meta_object_id": "2015-037B",
        "meta_epoch": "2025-12-18T01:31:18.410592",
        "meta_mean_motion": 1.86254045,
        "meta_eccentricity": 0.00035849,
        "meta_inclination": 55.0306,
        "meta_ra_of_asc_node": 308.2705,
        "meta_arg_of_pericenter": 0.3009,
        "meta_mean_anomaly": 359.6859,
        "meta_ephemeris_type": 0,
        "meta_classification_type": "U",
        "meta_norad_cat_id": 40749,
        "meta_element_set_no": 999,
        "meta_rev_at_epoch": 7075,
        "meta_bstar": 0,
        "meta_mean_motion_dot": -8.6e-07,
        "meta_mean_motion_ddot": 0,
        "tle_line1": "1 40749U 15037B   25352.06340753 -.00000086  00000+0  00000+0 0  9998",
        "tle_line2": "2 40749  55.0306 308.2705 0003584   0.3009 359.6859  1.86254045 70751"
      },
      "geometry": {
        "type": "Point",
        "coordinates": [
          -164.12791862804679,
          -52.90920202877873
        ]
      }
    },
    {
      "type": "Feature",
      "properties": {
        "norad_id": 40889,
        "name": "GSAT0205 (GALILEO 9)",
        "group": "gnss",
        "lat": -52.06561197551036,
        "lon": 110.52529476051103,
        "alt_km": 23242.566481815382,
        "timestamp": "2025-12-18T23:35:49.300955+00:00",
        "meta_object_name": "GSAT0205 (GALILEO 9)",
        "meta_object_id": "2015-045A",
        "meta_epoch": "2025-12-17T23:34:28.865856",
        "meta_mean_motion": 1.70473246,
        "meta_eccentricity": 0.00059886,
        "meta_inclination": 55.0015,
        "meta_ra_of_asc_node": 226.6133,
        "meta_arg_of_pericenter": 39.6119,
        "meta_mean_anomaly": 320.5359,
        "meta_ephemeris_type": 0,
        "meta_classification_type": "U",
        "meta_norad_cat_id": 40889,
        "meta_element_set_no": 999,
        "meta_rev_at_epoch": 6392,
        "meta_bstar": 0,
        "meta_mean_motion_dot": 5.9e-07,
        "meta_mean_motion_ddot": 0,
        "tle_line1": "1 40889U 15045A   25351.98227854  .00000059  00000+0  00000+0 0  9997",
        "tle_line2": "2 40889  55.0015 226.6133 0005988  39.6119 320.5359  1.70473246 63920"
      },
      "geometry": {
        "type": "Point",
        "coordinates": [
          110.52529476051103,
          -52.06561197551036
        ]
      }
    },
    {
      "type": "Feature",
      "properties": {
        "norad_id": 40890,
        "name": "GSAT0206 (GALILEO 10)",
        "group": "gnss",
        "lat": 45.77385389436271,
        "lon": 0.5960252232491934,
        "alt_km": 23214.74714452385,
        "timestamp": "2025-12-18T23:35:49.300998+00:00",
        "meta_object_name": "GSAT0206 (GALILEO 10)",
        "meta_object_id": "2015-045B",
        "meta_epoch": "2025-12-14T16:24:04.185792",
        "meta_mean_motion": 1.70473242,
        "meta_eccentricity": 0.00039786,
        "meta_inclination": 55.0018,
        "meta_ra_of_asc_node": 226.6995,
        "meta_arg_of_pericenter": 38.8814,
        "meta_mean_anomaly": 321.2332,
        "meta_ephemeris_type": 0,
        "meta_classification_type": "U",
        "meta_norad_cat_id": 40890,
        "meta_element_set_no": 999,
        "meta_rev_at_epoch": 6389,
        "meta_bstar": 0,
        "meta_mean_motion_dot": 3.4e-07,
        "meta_mean_motion_ddot": 0,
        "tle_line1": "1 40890U 15045B   25348.68338178  .00000034  00000+0  00000+0 0  9997",
        "tle_line2": "2 40890  55.0018 226.6995 0003978  38.8814 321.2332  1.70473242 63892"
      },
      "geometry": {
        "type": "Point",
        "coordinates": [
          0.5960252232491934,
          45.77385389436271
        ]
      }
    }
  ]
}